CCSDS_OMM_VERS = 2.0
CREATION_DATE  = 
ORIGINATOR     = 

OBJECT_NAME    = 2026-023H
OBJECT_ID      = 2026-023H
CENTER_NAME    = EARTH
REF_FRAME      = TEME
TIME_SYSTEM    = UTC
MEAN_ELEMENT_THEORY = SGP/SGP4

EPOCH          = 2026-02-06T19:57:24.636960
MEAN_MOTION    = 15.22318667
ECCENTRICITY   = .00215558
INCLINATION    = 96.6335
RA_OF_ASC_NODE = 116.8614
ARG_OF_PERICENTER = 226.9356
MEAN_ANOMALY   = 133.0079

EPHEMERIS_TYPE = 0
CLASSIFICATION_TYPE = U
NORAD_CAT_ID   = 67681
ELEMENT_SET_NO = 999
REV_AT_EPOCH   = 14
BSTAR          = .28069323E-3
MEAN_MOTION_DOT = .6451E-4
MEAN_MOTION_DDOT = 0

CCSDS_OMM_VERS = 2.0
CREATION_DATE  = 
ORIGINATOR     = 

OBJECT_NAME    = 2026-023J
OBJECT_ID      = 2026-023J
CENTER_NAME    = EARTH
REF_FRAME      = TEME
TIME_SYSTEM    = UTC
MEAN_ELEMENT_THEORY = SGP/SGP4

EPOCH          = 2026-02-06T19:57:21.610368
MEAN_MOTION    = 15.22391354
ECCENTRICITY   = .00211195
INCLINATION    = 96.6412
RA_OF_ASC_NODE = 116.8562
ARG_OF_PERICENTER = 228.0113
MEAN_ANOMALY   = 131.9327

EPHEMERIS_TYPE = 0
CLASSIFICATION_TYPE = U
NORAD_CAT_ID   = 67682
ELEMENT_SET_NO = 999
REV_AT_EPOCH   = 14
BSTAR          = .28055052E-3
MEAN_MOTION_DOT = .646E-4
MEAN_MOTION_DDOT = 0

CCSDS_OMM_VERS = 2.0
CREATION_DATE  = 
ORIGINATOR     = 

OBJECT_NAME    = ISS OBJECT XZ
OBJECT_ID      = 1998-067XZ
CENTER_NAME    = EARTH
REF_FRAME      = TEME
TIME_SYSTEM    = UTC
MEAN_ELEMENT_THEORY = SGP/SGP4

EPOCH          = 2026-02-07T21:18:16.508448
MEAN_MOTION    = 15.49415803
ECCENTRICITY   = .00110736
INCLINATION    = 51.6309
RA_OF_ASC_NODE = 219.6508
ARG_OF_PERICENTER = 90.6637
MEAN_ANOMALY   = 269.5620

EPHEMERIS_TYPE = 0
CLASSIFICATION_TYPE = U
NORAD_CAT_ID   = 67683
ELEMENT_SET_NO = 999
REV_AT_EPOCH   = 16
BSTAR          = .70999449E-3
MEAN_MOTION_DOT = .39523E-3
MEAN_MOTION_DDOT = 0

CCSDS_OMM_VERS = 2.0
CREATION_DATE  = 
ORIGINATOR     = 

OBJECT_NAME    = ISS OBJECT YA
OBJECT_ID      = 1998-067YA
CENTER_NAME    = EARTH
REF_FRAME      = TEME
TIME_SYSTEM    = UTC
MEAN_ELEMENT_THEORY = SGP/SGP4

EPOCH          = 2026-02-07T21:17:10.548960
MEAN_MOTION    = 15.49820253
ECCENTRICITY   = .00130841
INCLINATION    = 51.6308
RA_OF_ASC_NODE = 219.6466
ARG_OF_PERICENTER = 86.5540
MEAN_ANOMALY   = 273.6945

EPHEMERIS_TYPE = 0
CLASSIFICATION_TYPE = U
NORAD_CAT_ID   = 67684
ELEMENT_SET_NO = 999
REV_AT_EPOCH   = 16
BSTAR          = .11369581E-2
MEAN_MOTION_DOT = .64754E-3
MEAN_MOTION_DDOT = 0

CCSDS_OMM_VERS = 2.0
CREATION_DATE  = 
ORIGINATOR     = 

OBJECT_NAME    = LEOPARD
OBJECT_ID      = 1998-067YB
CENTER_NAME    = EARTH
REF_FRAME      = TEME
TIME_SYSTEM    = UTC
MEAN_ELEMENT_THEORY = SGP/SGP4

EPOCH          = 2026-02-07T21:18:00.694656
MEAN_MOTION    = 15.49499945
ECCENTRICITY   = .00130411
INCLINATION    = 51.6310
RA_OF_ASC_NODE = 219.6497
ARG_OF_PERICENTER = 85.9185
MEAN_ANOMALY   = 274.3294

EPHEMERIS_TYPE = 0
CLASSIFICATION_TYPE = U
NORAD_CAT_ID   = 67685
ELEMENT_SET_NO = 999
REV_AT_EPOCH   = 16
BSTAR          = .74417641E-3
MEAN_MOTION_DOT = .41622E-3
MEAN_MOTION_DDOT = 0

CCSDS_OMM_VERS = 2.0
CREATION_DATE  = 
ORIGINATOR     = 

OBJECT_NAME    = ISS OBJECT YC
OBJECT_ID      = 1998-067YC
CENTER_NAME    = EARTH
REF_FRAME      = TEME
TIME_SYSTEM    = UTC
MEAN_ELEMENT_THEORY = SGP/SGP4

EPOCH          = 2026-02-07T21:17:52.687104
MEAN_MOTION    = 15.49573070
ECCENTRICITY   = .0007818
INCLINATION    = 51.6317
RA_OF_ASC_NODE = 219.6496
ARG_OF_PERICENTER = 64.2438
MEAN_ANOMALY   = 295.9357

EPHEMERIS_TYPE = 0
CLASSIFICATION_TYPE = U
NORAD_CAT_ID   = 67686
ELEMENT_SET_NO = 999
REV_AT_EPOCH   = 16
BSTAR          = .83197059E-3
MEAN_MOTION_DOT = .4664E-3
MEAN_MOTION_DDOT = 0

CCSDS_OMM_VERS = 2.0
CREATION_DATE  = 
ORIGINATOR     = 

OBJECT_NAME    = CORAL
OBJECT_ID      = 1998-067YD
CENTER_NAME    = EARTH
REF_FRAME      = TEME
TIME_SYSTEM    = UTC
MEAN_ELEMENT_THEORY = SGP/SGP4

EPOCH          = 2026-02-07T21:18:07.300800
MEAN_MOTION    = 15.49469765
ECCENTRICITY   = .00079087
INCLINATION    = 51.6314
RA_OF_ASC_NODE = 219.6510
ARG_OF_PERICENTER = 65.3596
MEAN_ANOMALY   = 294.8215

EPHEMERIS_TYPE = 0
CLASSIFICATION_TYPE = U
NORAD_CAT_ID   = 67687
ELEMENT_SET_NO = 999
REV_AT_EPOCH   = 8
BSTAR          = .70694241E-3
MEAN_MOTION_DOT = .39381E-3
MEAN_MOTION_DDOT = 0

CCSDS_OMM_VERS = 2.0
CREATION_DATE  = 
ORIGINATOR     = 

OBJECT_NAME    = GXIBA-1
OBJECT_ID      = 1998-067YE
CENTER_NAME    = EARTH
REF_FRAME      = TEME
TIME_SYSTEM    = UTC
MEAN_ELEMENT_THEORY = SGP/SGP4

EPOCH          = 2026-02-07T19:45:01.390464
MEAN_MOTION    = 15.49552993
ECCENTRICITY   = .00078109
INCLINATION    = 51.6319
RA_OF_ASC_NODE = 219.9696
ARG_OF_PERICENTER = 64.9046
MEAN_ANOMALY   = 295.2753

EPHEMERIS_TYPE = 0
CLASSIFICATION_TYPE = U
NORAD_CAT_ID   = 67688
ELEMENT_SET_NO = 999
REV_AT_EPOCH   = 7
BSTAR          = .96012611E-3
MEAN_MOTION_DOT = .53906E-3
MEAN_MOTION_DDOT = 0

CCSDS_OMM_VERS = 2.0
CREATION_DATE  = 
ORIGINATOR     = 

OBJECT_NAME    = PRC TEST SPACECRAFT 4
OBJECT_ID      = 2026-024A
CENTER_NAME    = EARTH
REF_FRAME      = TEME
TIME_SYSTEM    = UTC
MEAN_ELEMENT_THEORY = SGP/SGP4

EPOCH          = 2026-02-07T22:16:47.885664
MEAN_MOTION    = 15.32670537
ECCENTRICITY   = .01796653
INCLINATION    = 49.9900
RA_OF_ASC_NODE = 163.7255
ARG_OF_PERICENTER = 151.6243
MEAN_ANOMALY   = 209.4644

EPHEMERIS_TYPE = 0
CLASSIFICATION_TYPE = U
NORAD_CAT_ID   = 67689
ELEMENT_SET_NO = 999
REV_AT_EPOCH   = 12
BSTAR          = .20021047E-3
MEAN_MOTION_DOT = .1032E-3
MEAN_MOTION_DDOT = 0

CCSDS_OMM_VERS = 2.0
CREATION_DATE  = 
ORIGINATOR     = 

OBJECT_NAME    = CZ-2F R/B
OBJECT_ID      = 2026-024B
CENTER_NAME    = EARTH
REF_FRAME      = TEME
TIME_SYSTEM    = UTC
MEAN_ELEMENT_THEORY = SGP/SGP4

EPOCH          = 2026-02-07T17:34:59.826432
MEAN_MOTION    = 15.32967051
ECCENTRICITY   = .01782037
INCLINATION    = 49.9863
RA_OF_ASC_NODE = 164.7049
ARG_OF_PERICENTER = 150.7504
MEAN_ANOMALY   = 210.3576

EPHEMERIS_TYPE = 0
CLASSIFICATION_TYPE = U
NORAD_CAT_ID   = 67690
ELEMENT_SET_NO = 999
REV_AT_EPOCH   = 9
BSTAR          = .24708307E-3
MEAN_MOTION_DOT = .1291E-3
MEAN_MOTION_DDOT = 0

CCSDS_OMM_VERS = 2.0
CREATION_DATE  = 
ORIGINATOR     = 

OBJECT_NAME    = CZ-2F DEB
OBJECT_ID      = 2026-024C
CENTER_NAME    = EARTH
REF_FRAME      = TEME
TIME_SYSTEM    = UTC
MEAN_ELEMENT_THEORY = SGP/SGP4

EPOCH          = 2026-02-07T09:44:59.193024
MEAN_MOTION    = 15.45551762
ECCENTRICITY   = .01135604
INCLINATION    = 49.9467
RA_OF_ASC_NODE = 166.3853
ARG_OF_PERICENTER = 147.5975
MEAN_ANOMALY   = 213.2028

EPHEMERIS_TYPE = 0
CLASSIFICATION_TYPE = U
NORAD_CAT_ID   = 67691
ELEMENT_SET_NO = 999
REV_AT_EPOCH   = 4
BSTAR          = .22491436E-3
MEAN_MOTION_DOT = .13633E-3
MEAN_MOTION_DDOT = 0

CCSDS_OMM_VERS = 2.0
CREATION_DATE  = 
ORIGINATOR     = 

OBJECT_NAME    = CZ-2F DEB
OBJECT_ID      = 2026-024D
CENTER_NAME    = EARTH
REF_FRAME      = TEME
TIME_SYSTEM    = UTC
MEAN_ELEMENT_THEORY = SGP/SGP4

EPOCH          = 2026-02-07T08:11:28.205952
MEAN_MOTION    = 15.42131272
ECCENTRICITY   = .01349549
INCLINATION    = 49.9172
RA_OF_ASC_NODE = 166.7551
ARG_OF_PERICENTER = 145.7017
MEAN_ANOMALY   = 215.2750

EPHEMERIS_TYPE = 0
CLASSIFICATION_TYPE = U
NORAD_CAT_ID   = 67692
ELEMENT_SET_NO = 999
REV_AT_EPOCH   = 3
BSTAR          = .22597737E-3
MEAN_MOTION_DOT = .13282E-3
MEAN_MOTION_DDOT = 0

