2026-023H               
1 67681U 26023H   26037.83153515  .00006451  00000+0  28069-3 0  9993
2 67681  96.6335 116.8614 0021555 226.9356 133.0079 15.22318667   149
2026-023J               
1 67682U 26023J   26037.83150012  .00006460  00000+0  28055-3 0  9998
2 67682  96.6412 116.8562 0021119 228.0113 131.9327 15.22391354   145
ISS OBJECT XZ           
1 67683U 98067XZ  26038.88769107  .00039523  00000+0  70999-3 0  9993
2 67683  51.6309 219.6508 0011073  90.6637 269.5620 15.49415803   167
ISS OBJECT YA           
1 67684U 98067YA  26038.88692765  .00064754  00000+0  11370-2 0  9990
2 67684  51.6308 219.6466 0013084  86.5540 273.6945 15.49820253   166
LEOPARD                 
1 67685U 98067YB  26038.88750804  .00041622  00000+0  74418-3 0  9992
2 67685  51.6310 219.6497 0013041  85.9185 274.3294 15.49499945   160
ISS OBJECT YC           
1 67686U 98067YC  26038.88741536  .00046640  00000+0  83197-3 0  9994
2 67686  51.6317 219.6496 0007818  64.2438 295.9357 15.49573070   164
CORAL                   
1 67687U 98067YD  26038.88758450  .00039381  00000+0  70694-3 0  9990
2 67687  51.6314 219.6510 0007908  65.3596 294.8215 15.49469765    83
GXIBA-1                 
1 67688U 98067YE  26038.82293276  .00053906  00000+0  96013-3 0  9997
2 67688  51.6319 219.9696 0007810  64.9046 295.2753 15.49552993    71
PRC TEST SPACECRAFT 4   
1 67689U 26024A   26038.92833201  .00010320  00000+0  20021-3 0  9990
2 67689  49.9900 163.7255 0179665 151.6243 209.4644 15.32670537   125
CZ-2F R/B               
1 67690U 26024B   26038.73263688  .00012910  00000+0  24708-3 0  9990
2 67690  49.9863 164.7049 0178203 150.7504 210.3576 15.32967051    95
CZ-2F DEB               
1 67691U 26024C   26038.40624066  .00013633  00000+0  22491-3 0  9996
2 67691  49.9467 166.3853 0113560 147.5975 213.2028 15.45551762    49
CZ-2F DEB               
1 67692U 26024D   26038.34129868  .00013282  00000+0  22598-3 0  9998
2 67692  49.9172 166.7551 0134954 145.7017 215.2750 15.42131272    39
